[{"OBJECT_NAME":"XW-3 (CAS-9)","OBJECT_ID":"2021-131B","EPOCH":"2026-03-09T23:45:34.750656","MEAN_MOTION":14.41251922,"ECCENTRICITY":0.00048592,"INCLINATION":98.4957,"RA_OF_ASC_NODE":161.9431,"ARG_OF_PERICENTER":49.1215,"MEAN_ANOMALY":311.0395,"EPHEMERIS_TYPE":0,"CLASSIFICATION_TYPE":"U","NORAD_CAT_ID":50466,"ELEMENT_SET_NO":999,"REV_AT_EPOCH":22082,"BSTAR":0.00025329897,"MEAN_MOTION_DOT":7.74e-6,"MEAN_MOTION_DDOT":0},{"OBJECT_NAME":"COSMOS 2251 DEB","OBJECT_ID":"1993-036VA","EPOCH":"2026-03-09T18:57:34.169184","MEAN_MOTION":14.40861952,"ECCENTRICITY":0.0018584,"INCLINATION":74.0304,"RA_OF_ASC_NODE":76.9332,"ARG_OF_PERICENTER":169.0455,"MEAN_ANOMALY":245.9232,"EPHEMERIS_TYPE":0,"CLASSIFICATION_TYPE":"U","NORAD_CAT_ID":34564,"ELEMENT_SET_NO":999,"REV_AT_EPOCH":89260,"BSTAR":0.00027589887,"MEAN_MOTION_DOT":8.6e-6,"MEAN_MOTION_DDOT":0}]
